[{"OBJECT_NAME":"STARLINK-31691","OBJECT_ID":"2024-097X","EPOCH":"2026-03-09T20:01:24.483360","MEAN_MOTION":15.27587247,"ECCENTRICITY":0.00019406,"INCLINATION":43.0044,"RA_OF_ASC_NODE":273.13,"ARG_OF_PERICENTER":276.3289,"MEAN_ANOMALY":83.7342,"EPHEMERIS_TYPE":0,"CLASSIFICATION_TYPE":"U","NORAD_CAT_ID":59856,"ELEMENT_SET_NO":999,"REV_AT_EPOCH":10194,"BSTAR":-6.2592988e-5,"MEAN_MOTION_DOT":-1.985e-5,"MEAN_MOTION_DDOT":0},{"OBJECT_NAME":"OBJECT BE","OBJECT_ID":"2025-313BE","EPOCH":"2026-03-09T16:43:59.380320","MEAN_MOTION":15.29801687,"ECCENTRICITY":0.00072083,"INCLINATION":97.3989,"RA_OF_ASC_NODE":145.3568,"ARG_OF_PERICENTER":335.3714,"MEAN_ANOMALY":24.7181,"EPHEMERIS_TYPE":0,"CLASSIFICATION_TYPE":"U","NORAD_CAT_ID":67482,"ELEMENT_SET_NO":999,"REV_AT_EPOCH":797,"BSTAR":0.0026504328,"MEAN_MOTION_DOT":0.00077178,"MEAN_MOTION_DDOT":0}]
